NORAD_CAT_ID,OBJECT_NAME,OBJECT_TYPE,EPOCH,MEAN_MOTION,ECCENTRICITY,INCLINATION,RA_OF_ASC_NODE,ARG_OF_PERICENTER,MEAN_ANOMALY,BSTAR,MEAN_MOTION_DOT,MEAN_MOTION_DDOT,TLE_LINE0,TLE_LINE1,TLE_LINE2,SEMIMAJOR_AXIS,PERIOD,APOGEE,PERIGEE,DECAYED
54159.0,STARLINK-5294,PAYLOAD,2022-12-17 06:00:00,15.10396473,0.0001291999999999,53.2164,264.1442,72.039,6.4121,-0.07775,-0.01185656,0.0,0 STARLINK-5294,1 54159U 22141C   22351.25001157 -.01185656  00000-0 -77750-1 0  9999,2 54159  53.2164 264.1442 0001292  72.0390   6.4121 15.10396473  7814,6913.127,95.339,535.885,534.099,0.0
54159.0,STARLINK-5294,PAYLOAD,2022-12-17 14:00:01,15.09346996,0.0001361,53.2169,262.6433,89.6008,1.9043,-0.044382,-0.00670016,0.0,0 STARLINK-5294,1 54159U 22141C   22351.58335648 -.00670016  00000-0 -44382-1 0  9993,2 54159  53.2169 262.6433 0001361  89.6008   1.9043 15.09346996  1303,6916.331,95.405,539.137,537.255,0.0
54159.0,STARLINK-5294,PAYLOAD,2022-12-17 22:00:00,15.0885633,0.0001549,53.217,261.1471,86.1854,17.1539,-0.0025432,-0.00040554,0.0,0 STARLINK-5294,1 54159U 22141C   22351.91667824 -.00040554  00000-0 -25432-2 0  9998,2 54159  53.2170 261.1471 0001549  86.1854  17.1539 15.08856330  7919,6917.83,95.437,540.7669999999998,538.624,0.0
54159.0,STARLINK-5294,PAYLOAD,2022-12-18 14:00:01,15.08815091,0.000148,53.2173,258.1535,88.5834,37.9479,0.0021823,0.0003458999999999,0.0,0 STARLINK-5294,1 54159U 22141C   22352.58334491  .00034590  00000-0  21823-2 0  9994,2 54159  53.2173 258.1535 0001480  88.5834  37.9479 15.08815091  8011,6917.956999999999,95.439,540.845,538.798,0.0
54159.0,STARLINK-5294,PAYLOAD,2022-12-18 22:00:00,15.08867221,0.000147,53.2175,256.6581,85.5514,52.5497,-0.0032539,-0.0005174,0.0,0 STARLINK-5294,1 54159U 22141C   22352.91667824 -.00051740  00000-0 -32539-2 0  9994,2 54159  53.2175 256.6581 0001470  85.5514  52.5497 15.08867221  1308,6917.797,95.436,540.679,538.645,0.0
54159.0,STARLINK-5294,PAYLOAD,2022-12-19 04:00:00,15.08815202,0.0001425,53.2175,255.5368,80.3152,336.5013,0.0018659,0.00029512,0.0,0 STARLINK-5294,1 54159U 22141C   22353.16667824  .00029512  00000-0  18659-2 0  9999,2 54159  53.2175 255.5368 0001425  80.3152 336.5013 15.08815202  8106,6917.956,95.439,540.807,538.835,0.0
54159.0,STARLINK-5294,PAYLOAD,2022-12-19 12:00:00,15.08825778,0.0001339,53.2178,254.0384,90.0194,338.3797,0.00064168,9.935e-05,0.0,0 STARLINK-5294,1 54159U 22141C   22353.50001157  .00009935  00000-0  64168-3 0  9992,2 54159  53.2178 254.0384 0001339  90.0194 338.3797 15.08825778  1302,6917.924,95.438,540.715,538.863,0.0
54159.0,STARLINK-5294,PAYLOAD,2022-12-19 22:00:00,15.08923338,0.0001436,53.2178,252.1683,92.0829,80.7819,-0.0059803999999999,-0.00094435,0.0,0 STARLINK-5294,1 54159U 22141C   22353.91667824 -.00094435  00000-0 -59804-2 0  9997,2 54159  53.2178 252.1683 0001436  92.0829  80.7819 15.08923338  1302,6917.626,95.432,540.484,538.497,0.0
54159.0,STARLINK-5294,PAYLOAD,2022-12-20 06:00:00,15.0879323,0.0001192,53.2173,250.6732,97.8487,86.6856,0.0020326,0.00032167,0.0,0 STARLINK-5294,1 54159U 22141C   22354.25001157  .00032167  00000-0  20326-2 0  9995,2 54159  53.2173 250.6732 0001192  97.8487  86.6856 15.08793230  8261,6918.023,95.441,540.7130000000002,539.064,0.0
54159.0,STARLINK-5294,PAYLOAD,2022-12-20 14:00:01,15.08788804,0.0001229,53.2173,249.1754,110.5364,85.5546,0.0035729,0.00056954,0.0,0 STARLINK-5294,1 54159U 22141C   22354.58334491  .00056954  00000-0  35729-2 0  9994,2 54159  53.2173 249.1754 0001229 110.5364  85.5546 15.08788804  1309,6918.0369999999975,95.441,540.752,539.052,0.0
54159.0,STARLINK-5294,PAYLOAD,2022-12-21 01:51:11,15.08822836,0.0001384,53.2183,246.9586,96.6749,263.4401,-7.3617e-05,-1.459e-05,0.0,0 STARLINK-5294,1 54159U 22141C   22355.07721338 -.00001459  00000-0 -73617-4 0  9991,2 54159  53.2183 246.9586 0001384  96.6749 263.4401 15.08822836  8398,6917.933000000001,95.439,540.755,538.84,0.0
54159.0,STARLINK-5294,PAYLOAD,2022-12-21 09:48:06,15.08836333,0.0001354,53.2179,245.4726,99.651,260.4636,0.0001114,1.485e-05,0.0,0 STARLINK-5294,1 54159U 22141C   22355.40841184  .00001485  00000-0  11140-3 0  9999,2 54159  53.2179 245.4726 0001354  99.6510 260.4636 15.08836333  8449,6917.892,95.438,540.693,538.82,0.0
54159.0,STARLINK-5294,PAYLOAD,2022-12-22 01:41:58,15.08852838,0.0001303,53.2172,242.4996,99.7581,260.3558,0.00073713,0.00011467,0.0,0 STARLINK-5294,1 54159U 22141C   22356.07081063  .00011467  00000-0  73713-3 0  9990,2 54159  53.2172 242.4996 0001303  99.7581 260.3558 15.08852838  8542,6917.840999999999,95.437,540.6080000000002,538.805,0.0
54159.0,STARLINK-5294,PAYLOAD,2022-12-22 09:38:53,15.08849167,0.0001281999999999,53.2173,241.0125,103.8617,256.2518,0.00040682,6.194e-05,0.0,0 STARLINK-5294,1 54159U 22141C   22356.40200989  .00006194  00000-0  40682-3 0  9997,2 54159  53.2173 241.0125 0001282 103.8617 256.2518 15.08849167  8591,6917.852,95.437,540.604,538.831,0.0
54159.0,STARLINK-5294,PAYLOAD,2022-12-23 01:32:45,15.08837763,0.0001192,53.2165,238.0386,103.814,256.2984,6.7138e-05,7.81e-06,0.0,0 STARLINK-5294,1 54159U 22141C   22357.06441369  .00000781  00000-0  67138-4 0  9991,2 54159  53.2165 238.0386 0001192 103.8140 256.2984 15.08837763  8695,6917.887,95.438,540.577,538.928,0.0
54159.0,STARLINK-5294,PAYLOAD,2022-12-23 09:29:40,15.08842871,0.0001206,53.2164,236.552,103.5114,256.6012,0.0001269,1.732e-05,0.0,0 STARLINK-5294,1 54159U 22141C   22357.39561168  .00001732  00000-0  12690-3 0  9996,2 54159  53.2164 236.5520 0001206 103.5114 256.6012 15.08842871  8749,6917.871999999999,95.437,540.571,538.9019999999998,0.0
54159.0,STARLINK-5294,PAYLOAD,2022-12-23 15:51:13,15.08843745,0.0001255,53.2166,235.3615,104.196,255.9171,0.00010735,1.421e-05,0.0,0 STARLINK-5294,1 54159U 22141C   22357.66057086  .00001421  00000-0  10735-3 0  9998,2 54159  53.2166 235.3615 0001255 104.1960 255.9171 15.08843745  8786,6917.869000000002,95.437,540.602,538.866,0.0
54159.0,STARLINK-5294,PAYLOAD,2022-12-24 01:23:31,15.08852911,0.0001234,53.216,233.5779,103.1731,256.9399,0.00025507,3.775e-05,0.0,0 STARLINK-5294,1 54159U 22141C   22358.05800601  .00003775  00000-0  25507-3 0  9998,2 54159  53.2160 233.5779 0001234 103.1731 256.9399 15.08852911  8848,6917.840999999999,95.437,540.56,538.852,0.0
54159.0,STARLINK-5294,PAYLOAD,2022-12-24 09:20:27,15.08855719,0.0001215,53.2164,232.0911,102.9264,257.1864,0.00021328,3.11e-05,0.0,0 STARLINK-5294,1 54159U 22141C   22358.38920178  .00003110  00000-0  21328-3 0  9996,2 54159  53.2164 232.0911 0001215 102.9264 257.1864 15.08855719  8895,6917.831999999999,95.437,540.538,538.857,0.0
54159.0,STARLINK-5294,PAYLOAD,2022-12-24 18:52:46,15.08843154,0.0001705,53.2164,230.3027,122.0959,238.0199,0.0001324,1.82e-05,0.0,0 STARLINK-5294,1 54159U 22141C   22358.78664700  .00001820  00000-0  13240-3 0  9996,2 54159  53.2164 230.3027 0001705 122.0959 238.0199 15.08843154  8958,6917.871,95.437,540.915,538.556,0.0
54159.0,STARLINK-5294,PAYLOAD,2022-12-24 20:28:09,15.08838013,0.0001488,53.2165,230.008,115.273,244.8416,5.9101e-05,6.53e-06,0.0,0 STARLINK-5294,1 54159U 22141C   22358.85289017  .00000653  00000-0  59101-4 0  9998,2 54159  53.2165 230.0080 0001488 115.2730 244.8416 15.08838013  8960,6917.886,95.438,540.781,538.722,0.0
54159.0,STARLINK-5294,PAYLOAD,2022-12-25 02:49:42,15.08835116,0.0001377,53.2177,228.8183,118.5183,241.5948,3.1708e-05,2.17e-06,0.0,0 STARLINK-5294,1 54159U 22141C   22359.11785224  .00000217  00000-0  31708-4 0  9998,2 54159  53.2177 228.8183 0001377 118.5183 241.5948 15.08835116  9008,6917.895,95.438,540.7130000000002,538.808,0.0
54159.0,STARLINK-5294,PAYLOAD,2022-12-25 18:43:33,15.08842972,0.0001286999999999,53.2177,225.8457,107.1378,252.9755,4.8018e-05,4.76e-06,0.0,0 STARLINK-5294,1 54159U 22141C   22359.78024664  .00000476  00000-0  48018-4 0  9994,2 54159  53.2177 225.8457 0001287 107.1378 252.9755 15.08842972  9100,6917.871,95.437,540.627,538.846,0.0
54159.0,STARLINK-5294,PAYLOAD,2022-12-25 20:18:56,15.08844949,0.0001345,53.2174,225.5492,101.7165,258.3978,4.0757e-05,3.61e-06,0.0,0 STARLINK-5294,1 54159U 22141C   22359.84648548  .00000361  00000-0  40757-4 0  9999,2 54159  53.2174 225.5492 0001345 101.7165 258.3978 15.08844949  9116,6917.865,95.437,540.661,538.8,0.0
54159.0,STARLINK-5294,PAYLOAD,2022-12-26 01:05:05,15.08848092,0.0001336,53.2173,224.6573,99.6827,260.4316,1.4517e-05,-5.7e-07,0.0,0 STARLINK-5294,1 54159U 22141C   22360.04520366 -.00000057  00000-0  14517-4 0  9998,2 54159  53.2173 224.6573 0001336  99.6827 260.4316 15.08848092  9141,6917.856,95.437,540.645,538.7959999999998,0.0
54159.0,STARLINK-5294,PAYLOAD,2022-12-26 16:58:58,15.0882937,0.0001415,53.2172,221.6839,98.5606,261.5546,3.292e-05,2.36e-06,0.0,0 STARLINK-5294,1 54159U 22141C   22360.70761642  .00000236  00000-0  32920-4 0  9991,2 54159  53.2172 221.6839 0001415  98.5606 261.5546 15.08829370  9249,6917.913000000001,95.438,540.757,538.799,0.0
54159.0,STARLINK-5294,PAYLOAD,2022-12-27 07:17:25,15.08840686,0.0001457,53.2171,219.008,98.2171,261.8987,0.00012463,1.696e-05,0.0,0 STARLINK-5294,1 54159U 22141C   22361.30376845  .00001696  00000-0  12463-3 0  9995,2 54159  53.2171 219.0080 0001457  98.2171 261.8987 15.08840686  9332,6917.878000000002,95.438,540.751,538.735,0.0
54159.0,STARLINK-5294,PAYLOAD,2022-12-27 16:49:43,15.08851617,0.0001403,53.2169,217.2236,97.5304,262.5848,0.00013133,1.803e-05,0.0,0 STARLINK-5294,1 54159U 22141C   22361.70120123  .00001803  00000-0  13133-3 0  9990,2 54159  53.2169 217.2236 0001403  97.5304 262.5848 15.08851617  9399,6917.845,95.437,540.68,538.739,0.0
54159.0,STARLINK-5294,PAYLOAD,2022-12-27 20:00:29,15.08852291,0.0001399,53.2169,216.6288,97.9818,262.1333,0.00013601,1.878e-05,0.0,0 STARLINK-5294,1 54159U 22141C   22361.83368017  .00001878  00000-0  13601-3 0  9992,2 54159  53.2169 216.6288 0001399  97.9818 262.1333 15.08852291  9414,6917.843000000003,95.437,540.6759999999998,538.74,0.0
